DELTA 2 R/B(1)          
1 20453U 90008B   26009.25170547  .00056265  00000+0  83469-3 0  9995
2 20453  35.6037 202.5248 0103334  68.8832 292.2912 15.48064365916894
COSMOS 2058             
1 20465U 90010A   26009.31376179  .00004393  00000+0  26274-3 0  9993
2 20465  82.4699 105.9086 0010110 174.5876 185.5465 15.10777476933270
SL-14 R/B               
1 20466U 90010B   26009.26527144  .00000583  00000+0  67774-4 0  9996
2 20466  82.5039 323.1961 0020956 132.4969 227.8021 14.83504407919678
SL-14 R/B               
1 20511U 90018B   26009.22581566  .00000535  00000+0  64372-4 0  9997
2 20511  82.5220 278.6773 0014990 289.9851  69.9749 14.82081574913776
HST                     
1 20580U 90037B   26008.89289380  .00006776  00000+0  22974-3 0  9999
2 20580  28.4664  87.6091 0002262 157.8382 202.2311 15.28461267764150
SL-16 R/B               
1 20625U 90046B   26009.31596551  .00000309  00000+0  18381-3 0  9991
2 20625  70.9997  62.6090 0013066  26.4931 333.6856 14.15004932839993
COSMOS 2084             
1 20663U 90055A   26009.20638914  .00004059  00000+0  29477-3 0  9995
2 20663  62.7893 178.3911 0027106 178.8248 181.2921 15.05222491927360
SL-6 R/B(2)             
1 20666U 90055D   26009.30865145  .00002551  00000+0  20150-3 0  9991
2 20666  62.7835  95.7305 0016197 326.1236  33.8827 15.03243272929267
SL-8 R/B                
1 20775U 90078B   26009.26402329  .00016758  00000+0  51080-3 0  9993
2 20775  82.9062 304.6575 0368936 213.2020 144.5562 14.86916561800467
SL-8 R/B                
1 21088U 91006B   26009.30282392  .00000001  00000+0 -14190-4 0  9991
2 21088  82.9408 214.2096 0022003 198.8540 334.7189 13.77492691755896
OKEAN-3                 
1 21397U 91039A   26009.15569906  .00002673  00000+0  18951-3 0  9996
2 21397  82.5164  34.5036 0014835 167.5260 192.6337 15.04321735856088
COSMOS 2151             
1 21422U 91042A   26009.31182671  .00002846  00000+0  22760-3 0  9992
2 21422  82.4979 140.9318 0011255 258.9956 101.0002 14.99829345854292
