CCSDS_OMM_VERS = 2.0
CREATION_DATE  = 
ORIGINATOR     = 

OBJECT_NAME    = DELTA 2 R/B(1)
OBJECT_ID      = 1990-008B
CENTER_NAME    = EARTH
REF_FRAME      = TEME
TIME_SYSTEM    = UTC
MEAN_ELEMENT_THEORY = SGP/SGP4

EPOCH          = 2026-01-09T06:02:27.352608
MEAN_MOTION    = 15.48064365
ECCENTRICITY   = .01033341
INCLINATION    = 35.6037
RA_OF_ASC_NODE = 202.5248
ARG_OF_PERICENTER = 68.8832
MEAN_ANOMALY   = 292.2912

EPHEMERIS_TYPE = 0
CLASSIFICATION_TYPE = U
NORAD_CAT_ID   = 20453
ELEMENT_SET_NO = 999
REV_AT_EPOCH   = 91689
BSTAR          = .83469329E-3
MEAN_MOTION_DOT = .56265E-3
MEAN_MOTION_DDOT = 0

CCSDS_OMM_VERS = 2.0
CREATION_DATE  = 
ORIGINATOR     = 

OBJECT_NAME    = COSMOS 2058
OBJECT_ID      = 1990-010A
CENTER_NAME    = EARTH
REF_FRAME      = TEME
TIME_SYSTEM    = UTC
MEAN_ELEMENT_THEORY = SGP/SGP4

EPOCH          = 2026-01-09T07:31:49.018656
MEAN_MOTION    = 15.10777476
ECCENTRICITY   = .00101104
INCLINATION    = 82.4699
RA_OF_ASC_NODE = 105.9086
ARG_OF_PERICENTER = 174.5876
MEAN_ANOMALY   = 185.5465

EPHEMERIS_TYPE = 0
CLASSIFICATION_TYPE = U
NORAD_CAT_ID   = 20465
ELEMENT_SET_NO = 999
REV_AT_EPOCH   = 93327
BSTAR          = .26274301E-3
MEAN_MOTION_DOT = .4393E-4
MEAN_MOTION_DDOT = 0

CCSDS_OMM_VERS = 2.0
CREATION_DATE  = 
ORIGINATOR     = 

OBJECT_NAME    = SL-14 R/B
OBJECT_ID      = 1990-010B
CENTER_NAME    = EARTH
REF_FRAME      = TEME
TIME_SYSTEM    = UTC
MEAN_ELEMENT_THEORY = SGP/SGP4

EPOCH          = 2026-01-09T06:21:59.452416
MEAN_MOTION    = 14.83504407
ECCENTRICITY   = .00209562
INCLINATION    = 82.5039
RA_OF_ASC_NODE = 323.1961
ARG_OF_PERICENTER = 132.4969
MEAN_ANOMALY   = 227.8021

EPHEMERIS_TYPE = 0
CLASSIFICATION_TYPE = U
NORAD_CAT_ID   = 20466
ELEMENT_SET_NO = 999
REV_AT_EPOCH   = 91967
BSTAR          = .67774233E-4
MEAN_MOTION_DOT = .583E-5
MEAN_MOTION_DDOT = 0

CCSDS_OMM_VERS = 2.0
CREATION_DATE  = 
ORIGINATOR     = 

OBJECT_NAME    = SL-14 R/B
OBJECT_ID      = 1990-018B
CENTER_NAME    = EARTH
REF_FRAME      = TEME
TIME_SYSTEM    = UTC
MEAN_ELEMENT_THEORY = SGP/SGP4

EPOCH          = 2026-01-09T05:25:10.473024
MEAN_MOTION    = 14.82081574
ECCENTRICITY   = .001499
INCLINATION    = 82.5220
RA_OF_ASC_NODE = 278.6773
ARG_OF_PERICENTER = 289.9851
MEAN_ANOMALY   = 69.9749

EPHEMERIS_TYPE = 0
CLASSIFICATION_TYPE = U
NORAD_CAT_ID   = 20511
ELEMENT_SET_NO = 999
REV_AT_EPOCH   = 91377
BSTAR          = .64371976E-4
MEAN_MOTION_DOT = .535E-5
MEAN_MOTION_DDOT = 0

CCSDS_OMM_VERS = 2.0
CREATION_DATE  = 
ORIGINATOR     = 

OBJECT_NAME    = HST
OBJECT_ID      = 1990-037B
CENTER_NAME    = EARTH
REF_FRAME      = TEME
TIME_SYSTEM    = UTC
MEAN_ELEMENT_THEORY = SGP/SGP4

EPOCH          = 2026-01-08T21:25:46.024320
MEAN_MOTION    = 15.28461267
ECCENTRICITY   = .00022623
INCLINATION    = 28.4664
RA_OF_ASC_NODE = 87.6091
ARG_OF_PERICENTER = 157.8382
MEAN_ANOMALY   = 202.2311

EPHEMERIS_TYPE = 0
CLASSIFICATION_TYPE = U
NORAD_CAT_ID   = 20580
ELEMENT_SET_NO = 999
REV_AT_EPOCH   = 76415
BSTAR          = .22973533E-3
MEAN_MOTION_DOT = .6776E-4
MEAN_MOTION_DDOT = 0

CCSDS_OMM_VERS = 2.0
CREATION_DATE  = 
ORIGINATOR     = 

OBJECT_NAME    = SL-16 R/B
OBJECT_ID      = 1990-046B
CENTER_NAME    = EARTH
REF_FRAME      = TEME
TIME_SYSTEM    = UTC
MEAN_ELEMENT_THEORY = SGP/SGP4

EPOCH          = 2026-01-09T07:34:59.420064
MEAN_MOTION    = 14.15004932
ECCENTRICITY   = .00130666
INCLINATION    = 70.9997
RA_OF_ASC_NODE = 62.6090
ARG_OF_PERICENTER = 26.4931
MEAN_ANOMALY   = 333.6856

EPHEMERIS_TYPE = 0
CLASSIFICATION_TYPE = U
NORAD_CAT_ID   = 20625
ELEMENT_SET_NO = 999
REV_AT_EPOCH   = 83999
BSTAR          = .18381246E-3
MEAN_MOTION_DOT = .309E-5
MEAN_MOTION_DDOT = 0

CCSDS_OMM_VERS = 2.0
CREATION_DATE  = 
ORIGINATOR     = 

OBJECT_NAME    = COSMOS 2084
OBJECT_ID      = 1990-055A
CENTER_NAME    = EARTH
REF_FRAME      = TEME
TIME_SYSTEM    = UTC
MEAN_ELEMENT_THEORY = SGP/SGP4

EPOCH          = 2026-01-09T04:57:12.021696
MEAN_MOTION    = 15.05222491
ECCENTRICITY   = .00271063
INCLINATION    = 62.7893
RA_OF_ASC_NODE = 178.3911
ARG_OF_PERICENTER = 178.8248
MEAN_ANOMALY   = 181.2921

EPHEMERIS_TYPE = 0
CLASSIFICATION_TYPE = U
NORAD_CAT_ID   = 20663
ELEMENT_SET_NO = 999
REV_AT_EPOCH   = 92736
BSTAR          = .2947727E-3
MEAN_MOTION_DOT = .4059E-4
MEAN_MOTION_DDOT = 0

CCSDS_OMM_VERS = 2.0
CREATION_DATE  = 
ORIGINATOR     = 

OBJECT_NAME    = SL-6 R/B(2)
OBJECT_ID      = 1990-055D
CENTER_NAME    = EARTH
REF_FRAME      = TEME
TIME_SYSTEM    = UTC
MEAN_ELEMENT_THEORY = SGP/SGP4

EPOCH          = 2026-01-09T07:24:27.485280
MEAN_MOTION    = 15.03243272
ECCENTRICITY   = .00161971
INCLINATION    = 62.7835
RA_OF_ASC_NODE = 95.7305
ARG_OF_PERICENTER = 326.1236
MEAN_ANOMALY   = 33.8827

EPHEMERIS_TYPE = 0
CLASSIFICATION_TYPE = U
NORAD_CAT_ID   = 20666
ELEMENT_SET_NO = 999
REV_AT_EPOCH   = 92926
BSTAR          = .20149518E-3
MEAN_MOTION_DOT = .2551E-4
MEAN_MOTION_DDOT = 0

CCSDS_OMM_VERS = 2.0
CREATION_DATE  = 
ORIGINATOR     = 

OBJECT_NAME    = SL-8 R/B
OBJECT_ID      = 1990-078B
CENTER_NAME    = EARTH
REF_FRAME      = TEME
TIME_SYSTEM    = UTC
MEAN_ELEMENT_THEORY = SGP/SGP4

EPOCH          = 2026-01-09T06:20:11.612256
MEAN_MOTION    = 14.86916561
ECCENTRICITY   = .03689361
INCLINATION    = 82.9062
RA_OF_ASC_NODE = 304.6575
ARG_OF_PERICENTER = 213.2020
MEAN_ANOMALY   = 144.5562

EPHEMERIS_TYPE = 0
CLASSIFICATION_TYPE = U
NORAD_CAT_ID   = 20775
ELEMENT_SET_NO = 999
REV_AT_EPOCH   = 80046
BSTAR          = .51079807E-3
MEAN_MOTION_DOT = .16758E-3
MEAN_MOTION_DDOT = 0

CCSDS_OMM_VERS = 2.0
CREATION_DATE  = 
ORIGINATOR     = 

OBJECT_NAME    = SL-8 R/B
OBJECT_ID      = 1991-006B
CENTER_NAME    = EARTH
REF_FRAME      = TEME
TIME_SYSTEM    = UTC
MEAN_ELEMENT_THEORY = SGP/SGP4

EPOCH          = 2026-01-09T07:16:03.986688
MEAN_MOTION    = 13.77492691
ECCENTRICITY   = .00220032
INCLINATION    = 82.9408
RA_OF_ASC_NODE = 214.2096
ARG_OF_PERICENTER = 198.8540
MEAN_ANOMALY   = 334.7189

EPHEMERIS_TYPE = 0
CLASSIFICATION_TYPE = U
NORAD_CAT_ID   = 21088
ELEMENT_SET_NO = 999
REV_AT_EPOCH   = 75589
BSTAR          = -.14189758E-4
MEAN_MOTION_DOT = .1E-7
MEAN_MOTION_DDOT = 0

CCSDS_OMM_VERS = 2.0
CREATION_DATE  = 
ORIGINATOR     = 

OBJECT_NAME    = OKEAN-3
OBJECT_ID      = 1991-039A
CENTER_NAME    = EARTH
REF_FRAME      = TEME
TIME_SYSTEM    = UTC
MEAN_ELEMENT_THEORY = SGP/SGP4

EPOCH          = 2026-01-09T03:44:12.398784
MEAN_MOTION    = 15.04321735
ECCENTRICITY   = .00148351
INCLINATION    = 82.5164
RA_OF_ASC_NODE = 34.5036
ARG_OF_PERICENTER = 167.5260
MEAN_ANOMALY   = 192.6337

EPHEMERIS_TYPE = 0
CLASSIFICATION_TYPE = U
NORAD_CAT_ID   = 21397
ELEMENT_SET_NO = 999
REV_AT_EPOCH   = 85608
BSTAR          = .18951291E-3
MEAN_MOTION_DOT = .2673E-4
MEAN_MOTION_DDOT = 0

CCSDS_OMM_VERS = 2.0
CREATION_DATE  = 
ORIGINATOR     = 

OBJECT_NAME    = COSMOS 2151
OBJECT_ID      = 1991-042A
CENTER_NAME    = EARTH
REF_FRAME      = TEME
TIME_SYSTEM    = UTC
MEAN_ELEMENT_THEORY = SGP/SGP4

EPOCH          = 2026-01-09T07:29:01.827744
MEAN_MOTION    = 14.99829345
ECCENTRICITY   = .00112558
INCLINATION    = 82.4979
RA_OF_ASC_NODE = 140.9318
ARG_OF_PERICENTER = 258.9956
MEAN_ANOMALY   = 101.0002

EPHEMERIS_TYPE = 0
CLASSIFICATION_TYPE = U
NORAD_CAT_ID   = 21422
ELEMENT_SET_NO = 999
REV_AT_EPOCH   = 85429
BSTAR          = .22760403E-3
MEAN_MOTION_DOT = .2846E-4
MEAN_MOTION_DDOT = 0

